H1 CPF 01  gfz 2022 08 14 12  7262 tandemx   
H2 1003001  6202 36605    2022 08 14 12 59 42 2022 08 19 00 00 42   120 1 1  0 0 0
H9
10 0 59809  82062.000000  0     622725.161  -4125402.420   5471236.032
10 0 59809  82182.000000  0     289114.942  -3420781.840   5961684.014
10 0 59809  82302.000000  0     -36637.420  -2650663.886   6347299.971
10 0 59809  82422.000000  0    -347817.728  -1828705.236   6621339.588
10 0 59809  82542.000000  0    -638217.051   -969569.697   6779013.785
10 0 59809  82662.000000  0    -902253.762    -88664.943   6817568.538
10 0 59809  82782.000000  0   -1135079.846    798134.736   6736330.316
10 0 59809  82902.000000  0   -1332669.468   1674774.219   6536716.728
10 0 59809  83022.000000  0   -1491888.459   2525307.481   6222213.328
10 0 59809  83142.000000  0   -1610544.346   3334187.844   5798316.567
10 0 59809  83262.000000  0   -1687415.675   4086553.816   5272442.774
10 0 59809  83382.000000  0   -1722259.959   4768506.248   4653805.346
10 0 59809  83502.000000  0   -1715800.958   5367372.385   3953258.655
10 0 59809  83622.000000  0   -1669694.067   5871949.831   3183111.019
10 0 59809  83742.000000  0   -1586472.386   6272725.169   2356909.553
10 0 59809  83862.000000  0   -1469473.059   6562062.932   1489199.856
10 0 59809  83982.000000  0   -1322744.368   6734359.072    595264.737
10 0 59809  84102.000000  0   -1150937.366   6786154.383   -309151.517
10 0 59809  84222.000000  0    -959184.853   6716207.214  -1208129.102
10 0 59809  84342.000000  0    -752969.363   6525519.191  -2085864.481
10 0 59809  84462.000000  0    -537985.633   6217312.709  -2926956.100
10 0 59809  84582.000000  0    -320001.117   5796965.795  -3716677.900
10 0 59809  84702.000000  0    -104717.063   5271907.096  -4441237.771
10 0 59809  84822.000000  0     102366.269   4651472.327  -5088016.199
10 0 59809  84942.000000  0     296077.323   3946726.798  -5645780.176
10 0 59809  85062.000000  0     471690.925   3170257.968  -6104869.997
10 0 59809  85182.000000  0     625032.879   2335942.912  -6457355.578
10 0 59809  85302.000000  0     752570.187   1458697.298  -6697161.505
10 0 59809  85422.000000  0     851485.618    554209.916  -6820161.559
10 0 59809  85542.000000  0     919735.054   -361334.002  -6824242.210
10 0 59809  85662.000000  0     956087.156  -1271536.912  -6709334.372
10 0 59809  85782.000000  0     960144.683  -2160074.689  -6477412.677
10 0 59809  85902.000000  0     932348.011  -3010980.790  -6132466.139
10 0 59809  86022.000000  0     873960.170  -3808929.356  -5680439.273
10 0 59809  86142.000000  0     787032.755  -4539510.710  -5129138.736
10 0 59809  86262.000000  0     674355.052  -5189492.928  -4488109.612
10 0 59809  86382.000000  0     539385.464  -5747067.830  -3768481.838
99
